STARLINK-4597           
1 53640U 22104BE  22250.91667824 -.01201561  00000+0 -88065-2 0  9997
2 53640  53.2173 234.5674 0003643 333.6170  71.6216 15.75295231  1308
STARLINK-4588           
1 53641U 22104BF  22250.91667824 -.01197845  00000+0 -87746-2 0  9992
2 53641  53.2173 234.5656 0003008 346.7456  59.0499 15.75306984  1307
STARLINK-4622           
1 53648U 22105A   22251.25001157 -.00000547  00000+0 -34255-5 0  9990
2 53648  97.6557 128.9131 0001569  98.6069 217.1666 15.70277188  1557
STARLINK-4386           
1 53649U 22105B   22251.25001157 -.00002483  00000+0 -19405-4 0  9991
2 53649  97.6556 128.9134 0001664 110.5224 205.8463 15.70278300  1548
STARLINK-4380           
1 53650U 22105C   22251.25001157 -.00002250  00000+0 -17483-4 0  9999
2 53650  97.6553 128.9140 0001638 105.8343 211.1302 15.70278093  1545
STARLINK-4388           
1 53651U 22105D   22251.25001157  .00003278  00000+0  28133-4 0  9993
2 53651  97.6557 128.9137 0001716 115.5561 202.0059 15.70274555  1540
STARLINK-4374           
1 53652U 22105E   22251.25001157  .00006046  00000+0  50957-4 0  9999
2 53652  97.6557 128.9143 0001606 117.8557 200.3028 15.70272901  1546
STARLINK-4390           
1 53653U 22105F   22251.25001157  .00005692  00000+0  48037-4 0  9992
2 53653  97.6557 128.9143 0001454 102.8488 215.9055 15.70272996  1541
STARLINK-4420           
1 53654U 22105G   22251.25001157 -.00014049  00000+0 -11500-3 0  9995
2 53654  97.6557 128.9154 0001858 116.9663 203.5702 15.70284369  1542
STARLINK-4470           
1 53655U 22105H   22251.25001157  .00002691  00000+0  23290-4 0  9994
2 53655  97.6557 128.9146 0001536 105.6101 213.7392 15.70274625  1541
STARLINK-4466           
1 53656U 22105J   22251.25001157 -.00028836  00000+0 -23753-3 0  9999
2 53656  97.6557 128.9159 0001676 117.1755 204.5480 15.70293657  1546
STARLINK-4469           
1 53657U 22105K   22251.25001157 -.00004959  00000+0 -39856-4 0  9992
2 53657  97.6557 128.9149 0001640  95.6709 224.2723 15.70278984  1541
STARLINK-4452           
1 53658U 22105L   22251.25001157 -.00041796  00000+0 -34519-3 0  9993
2 53658  97.6557 128.9162 0001589 116.1324 206.1828 15.70301811  1542
STARLINK-4463           
1 53659U 22105M   22251.25001157 -.00019745  00000+0 -16216-3 0  9997
2 53659  97.6557 128.9155 0001849 119.3706 201.7600 15.70287890  1542
STARLINK-4473           
1 53660U 22105N   22251.25001157 -.00107204  00000+0 -89243-3 0  9997
2 53660  97.6557 128.9171 0001892 111.2116 212.8710 15.70342876  1547
STARLINK-4472           
1 53661U 22105P   22251.25001157 -.00054395  00000+0 -45010-3 0  9994
2 53661  97.6557 128.9164 0001537 103.8878 219.0194 15.70309625  1548
