let sat = [{"OBJECT_NAME":"STARLINK-4597","OBJECT_ID":"2022-104BE","EPOCH":"2022-09-07T22:00:00.999936","MEAN_MOTION":15.75295231,"ECCENTRICITY":0.0003643,"INCLINATION":53.2173,"RA_OF_ASC_NODE":234.5674,"ARG_OF_PERICENTER":333.617,"MEAN_ANOMALY":71.6216,"EPHEMERIS_TYPE":0,"CLASSIFICATION_TYPE":"U","NORAD_CAT_ID":53640,"ELEMENT_SET_NO":999,"REV_AT_EPOCH":130,"BSTAR":-0.0088065,"MEAN_MOTION_DOT":-0.01201561,"MEAN_MOTION_DDOT":0},{"OBJECT_NAME":"STARLINK-4588","OBJECT_ID":"2022-104BF","EPOCH":"2022-09-07T22:00:00.999936","MEAN_MOTION":15.75306984,"ECCENTRICITY":0.0003008,"INCLINATION":53.2173,"RA_OF_ASC_NODE":234.5656,"ARG_OF_PERICENTER":346.7456,"MEAN_ANOMALY":59.0499,"EPHEMERIS_TYPE":0,"CLASSIFICATION_TYPE":"U","NORAD_CAT_ID":53641,"ELEMENT_SET_NO":999,"REV_AT_EPOCH":130,"BSTAR":-0.0087746,"MEAN_MOTION_DOT":-0.01197845,"MEAN_MOTION_DDOT":0},{"OBJECT_NAME":"STARLINK-4622","OBJECT_ID":"2022-105A","EPOCH":"2022-09-08T06:00:00.999648","MEAN_MOTION":15.70277188,"ECCENTRICITY":0.0001569,"INCLINATION":97.6557,"RA_OF_ASC_NODE":128.9131,"ARG_OF_PERICENTER":98.6069,"MEAN_ANOMALY":217.1666,"EPHEMERIS_TYPE":0,"CLASSIFICATION_TYPE":"U","NORAD_CAT_ID":53648,"ELEMENT_SET_NO":999,"REV_AT_EPOCH":155,"BSTAR":-3.4255e-6,"MEAN_MOTION_DOT":-5.47e-6,"MEAN_MOTION_DDOT":0},{"OBJECT_NAME":"STARLINK-4386","OBJECT_ID":"2022-105B","EPOCH":"2022-09-08T06:00:00.999648","MEAN_MOTION":15.702783,"ECCENTRICITY":0.0001664,"INCLINATION":97.6556,"RA_OF_ASC_NODE":128.9134,"ARG_OF_PERICENTER":110.5224,"MEAN_ANOMALY":205.8463,"EPHEMERIS_TYPE":0,"CLASSIFICATION_TYPE":"U","NORAD_CAT_ID":53649,"ELEMENT_SET_NO":999,"REV_AT_EPOCH":154,"BSTAR":-1.9405e-5,"MEAN_MOTION_DOT":-2.483e-5,"MEAN_MOTION_DDOT":0},{"OBJECT_NAME":"STARLINK-4380","OBJECT_ID":"2022-105C","EPOCH":"2022-09-08T06:00:00.999648","MEAN_MOTION":15.70278093,"ECCENTRICITY":0.0001638,"INCLINATION":97.6553,"RA_OF_ASC_NODE":128.914,"ARG_OF_PERICENTER":105.8343,"MEAN_ANOMALY":211.1302,"EPHEMERIS_TYPE":0,"CLASSIFICATION_TYPE":"U","NORAD_CAT_ID":53650,"ELEMENT_SET_NO":999,"REV_AT_EPOCH":154,"BSTAR":-1.7483e-5,"MEAN_MOTION_DOT":-2.25e-5,"MEAN_MOTION_DDOT":0},{"OBJECT_NAME":"STARLINK-4388","OBJECT_ID":"2022-105D","EPOCH":"2022-09-08T06:00:00.999648","MEAN_MOTION":15.70274555,"ECCENTRICITY":0.0001716,"INCLINATION":97.6557,"RA_OF_ASC_NODE":128.9137,"ARG_OF_PERICENTER":115.5561,"MEAN_ANOMALY":202.0059,"EPHEMERIS_TYPE":0,"CLASSIFICATION_TYPE":"U","NORAD_CAT_ID":53651,"ELEMENT_SET_NO":999,"REV_AT_EPOCH":154,"BSTAR":2.8133e-5,"MEAN_MOTION_DOT":3.278e-5,"MEAN_MOTION_DDOT":0},{"OBJECT_NAME":"STARLINK-4374","OBJECT_ID":"2022-105E","EPOCH":"2022-09-08T06:00:00.999648","MEAN_MOTION":15.70272901,"ECCENTRICITY":0.0001606,"INCLINATION":97.6557,"RA_OF_ASC_NODE":128.9143,"ARG_OF_PERICENTER":117.8557,"MEAN_ANOMALY":200.3028,"EPHEMERIS_TYPE":0,"CLASSIFICATION_TYPE":"U","NORAD_CAT_ID":53652,"ELEMENT_SET_NO":999,"REV_AT_EPOCH":154,"BSTAR":5.0957e-5,"MEAN_MOTION_DOT":6.046e-5,"MEAN_MOTION_DDOT":0},{"OBJECT_NAME":"STARLINK-4390","OBJECT_ID":"2022-105F","EPOCH":"2022-09-08T06:00:00.999648","MEAN_MOTION":15.70272996,"ECCENTRICITY":0.0001454,"INCLINATION":97.6557,"RA_OF_ASC_NODE":128.9143,"ARG_OF_PERICENTER":102.8488,"MEAN_ANOMALY":215.9055,"EPHEMERIS_TYPE":0,"CLASSIFICATION_TYPE":"U","NORAD_CAT_ID":53653,"ELEMENT_SET_NO":999,"REV_AT_EPOCH":154,"BSTAR":4.8037e-5,"MEAN_MOTION_DOT":5.692e-5,"MEAN_MOTION_DDOT":0},{"OBJECT_NAME":"STARLINK-4420","OBJECT_ID":"2022-105G","EPOCH":"2022-09-08T06:00:00.999648","MEAN_MOTION":15.70284369,"ECCENTRICITY":0.0001858,"INCLINATION":97.6557,"RA_OF_ASC_NODE":128.9154,"ARG_OF_PERICENTER":116.9663,"MEAN_ANOMALY":203.5702,"EPHEMERIS_TYPE":0,"CLASSIFICATION_TYPE":"U","NORAD_CAT_ID":53654,"ELEMENT_SET_NO":999,"REV_AT_EPOCH":154,"BSTAR":-0.000115,"MEAN_MOTION_DOT":-0.00014049,"MEAN_MOTION_DDOT":0},{"OBJECT_NAME":"STARLINK-4470","OBJECT_ID":"2022-105H","EPOCH":"2022-09-08T06:00:00.999648","MEAN_MOTION":15.70274625,"ECCENTRICITY":0.0001536,"INCLINATION":97.6557,"RA_OF_ASC_NODE":128.9146,"ARG_OF_PERICENTER":105.6101,"MEAN_ANOMALY":213.7392,"EPHEMERIS_TYPE":0,"CLASSIFICATION_TYPE":"U","NORAD_CAT_ID":53655,"ELEMENT_SET_NO":999,"REV_AT_EPOCH":154,"BSTAR":2.329e-5,"MEAN_MOTION_DOT":2.691e-5,"MEAN_MOTION_DDOT":0},{"OBJECT_NAME":"STARLINK-4466","OBJECT_ID":"2022-105J","EPOCH":"2022-09-08T06:00:00.999648","MEAN_MOTION":15.70293657,"ECCENTRICITY":0.0001676,"INCLINATION":97.6557,"RA_OF_ASC_NODE":128.9159,"ARG_OF_PERICENTER":117.1755,"MEAN_ANOMALY":204.548,"EPHEMERIS_TYPE":0,"CLASSIFICATION_TYPE":"U","NORAD_CAT_ID":53656,"ELEMENT_SET_NO":999,"REV_AT_EPOCH":154,"BSTAR":-0.00023753,"MEAN_MOTION_DOT":-0.00028836,"MEAN_MOTION_DDOT":0},{"OBJECT_NAME":"STARLINK-4469","OBJECT_ID":"2022-105K","EPOCH":"2022-09-08T06:00:00.999648","MEAN_MOTION":15.70278984,"ECCENTRICITY":0.000164,"INCLINATION":97.6557,"RA_OF_ASC_NODE":128.9149,"ARG_OF_PERICENTER":95.6709,"MEAN_ANOMALY":224.2723,"EPHEMERIS_TYPE":0,"CLASSIFICATION_TYPE":"U","NORAD_CAT_ID":53657,"ELEMENT_SET_NO":999,"REV_AT_EPOCH":154,"BSTAR":-3.9856e-5,"MEAN_MOTION_DOT":-4.959e-5,"MEAN_MOTION_DDOT":0},{"OBJECT_NAME":"STARLINK-4452","OBJECT_ID":"2022-105L","EPOCH":"2022-09-08T06:00:00.999648","MEAN_MOTION":15.70301811,"ECCENTRICITY":0.0001589,"INCLINATION":97.6557,"RA_OF_ASC_NODE":128.9162,"ARG_OF_PERICENTER":116.1324,"MEAN_ANOMALY":206.1828,"EPHEMERIS_TYPE":0,"CLASSIFICATION_TYPE":"U","NORAD_CAT_ID":53658,"ELEMENT_SET_NO":999,"REV_AT_EPOCH":154,"BSTAR":-0.00034519,"MEAN_MOTION_DOT":-0.00041796,"MEAN_MOTION_DDOT":0},{"OBJECT_NAME":"STARLINK-4463","OBJECT_ID":"2022-105M","EPOCH":"2022-09-08T06:00:00.999648","MEAN_MOTION":15.7028789,"ECCENTRICITY":0.0001849,"INCLINATION":97.6557,"RA_OF_ASC_NODE":128.9155,"ARG_OF_PERICENTER":119.3706,"MEAN_ANOMALY":201.76,"EPHEMERIS_TYPE":0,"CLASSIFICATION_TYPE":"U","NORAD_CAT_ID":53659,"ELEMENT_SET_NO":999,"REV_AT_EPOCH":154,"BSTAR":-0.00016216,"MEAN_MOTION_DOT":-0.00019745,"MEAN_MOTION_DDOT":0},{"OBJECT_NAME":"STARLINK-4473","OBJECT_ID":"2022-105N","EPOCH":"2022-09-08T06:00:00.999648","MEAN_MOTION":15.70342876,"ECCENTRICITY":0.0001892,"INCLINATION":97.6557,"RA_OF_ASC_NODE":128.9171,"ARG_OF_PERICENTER":111.2116,"MEAN_ANOMALY":212.871,"EPHEMERIS_TYPE":0,"CLASSIFICATION_TYPE":"U","NORAD_CAT_ID":53660,"ELEMENT_SET_NO":999,"REV_AT_EPOCH":154,"BSTAR":-0.00089243,"MEAN_MOTION_DOT":-0.00107204,"MEAN_MOTION_DDOT":0},{"OBJECT_NAME":"STARLINK-4472","OBJECT_ID":"2022-105P","EPOCH":"2022-09-08T06:00:00.999648","MEAN_MOTION":15.70309625,"ECCENTRICITY":0.0001537,"INCLINATION":97.6557,"RA_OF_ASC_NODE":128.9164,"ARG_OF_PERICENTER":103.8878,"MEAN_ANOMALY":219.0194,"EPHEMERIS_TYPE":0,"CLASSIFICATION_TYPE":"U","NORAD_CAT_ID":53661,"ELEMENT_SET_NO":999,"REV_AT_EPOCH":154,"BSTAR":-0.0004501,"MEAN_MOTION_DOT":-0.00054395,"MEAN_MOTION_DDOT":0}]